ONEWEB-0208             
1 48243U 21031AK  24213.87156057  .00000100  00000+0  23547-3 0  9993
2 48243  87.8926  66.0266 0001626  88.6007 271.5309 13.14501366158273
ONEWEB-0200             
1 48244U 21031AL  24213.83506328  .00000024  00000+0  30668-4 0  9998
2 48244  87.8927  66.0306 0001587  88.1342 271.9970 13.14500980158193
ONEWEB-0217             
1 48245U 21031AM  24214.15538624 -.00000123  00000+0 -36510-3 0  9992
2 48245  87.8925  65.9511 0001477  89.4927 270.6372 13.14501218158196
ONEWEB-0211             
1 48767U 21045A   24213.74243291  .00000196  00000+0  48552-3 0  9990
2 48767  87.9021  35.5728 0001701  86.8090 273.3235 13.15550174154299
ONEWEB-0223             
1 48768U 21045B   24213.91672176 -.00000110  00000+0 -32742-3 0  9990
2 48768  87.9024  35.5462 0001339  70.2041 289.9234 13.15546574154301
ONEWEB-0230             
1 48769U 21045C   24213.88821150  .00000198  00000+0  49163-3 0  9994
2 48769  87.9023  35.6226 0001844  84.9310 275.2031 13.15549342154569
ONEWEB-0237             
1 48770U 21045D   24213.87711861  .00000181  00000+0  44799-3 0  9994
2 48770  87.9029  35.5586 0001513  78.4024 281.7276 13.15546997154283
ONEWEB-0235             
1 48771U 21045E   24214.00387936 -.00000027  00000+0 -10493-3 0  9998
2 48771  87.9020  35.5396 0001426  65.4001 294.7277 13.15549517155410
ONEWEB-0242             
1 48772U 21045F   24213.76937148 -.00000048  00000+0 -16238-3 0  9993
2 48772  87.9020  35.5744 0001768  82.1717 277.9613 13.15549201154301
ONEWEB-0241             
1 48773U 21045G   24214.21303060  .00000046  00000+0  87577-4 0  9996
2 48773  87.9030  35.5372 0001325  88.8703 271.2579 13.15550008155404
ONEWEB-0243             
1 48774U 21045H   24213.94050264  .00000064  00000+0  13656-3 0  9997
2 48774  87.9030  35.5509 0001484  70.3261 289.8030 13.15549656154265
ONEWEB-0222             
1 48775U 21045J   24213.92386361 -.00000127  00000+0 -37047-3 0  9998
2 48775  87.9018  35.5532 0001511  86.4654 273.6649 13.15549642155424
ONEWEB-0244             
1 48776U 21045K   24213.95000565  .00000174  00000+0  42875-3 0  9996
2 48776  87.9017  35.5299 0001830  82.5722 277.5616 13.15547138154874
ONEWEB-0247             
1 48777U 21045L   24213.94684130  .00000147  00000+0  35731-3 0  9995
2 48777  87.9025  35.5748 0001504  52.4744 307.6523 13.15548621154310
ONEWEB-0245             
1 48778U 21045M   24213.94208276  .00000047  00000+0  89800-4 0  9995
2 48778  87.9018  35.5626 0001557  92.5731 267.5578 13.15549302154284
ONEWEB-0229             
1 48779U 21045N   24214.01337706 -.00000098  00000+0 -29305-3 0  9997
2 48779  87.9019  35.5426 0001771  84.0672 276.0660 13.15549326155455
ONEWEB-0228             
1 48780U 21045P   24213.73983110  .00000287  00000+0  73466-3 0  9998
2 48780  87.9018  35.5785 0001712  85.5085 274.6240 13.15071609154207
ONEWEB-0232             
1 48781U 21045Q   24213.94526718  .00000078  00000+0  17184-3 0  9992
2 48781  87.9012  35.5499 0001724  85.9280 274.2047 13.15548427154554
ONEWEB-0231             
1 48782U 21045R   24213.99912931 -.00000090  00000+0 -27421-3 0  9995
2 48782  87.9028  35.5757 0001610  81.7044 278.4269 13.15548942155392
ONEWEB-0234             
1 48783U 21045S   24213.94288086  .00000073  00000+0  15978-3 0  9991
2 48783  87.9020  35.5426 0002279 125.2049 234.9295 13.15548749154388
ONEWEB-0238             
1 48784U 21045T   24213.89693864  .00000105  00000+0  24372-3 0  9994
2 48784  87.9020  35.5694 0001817  93.9531 266.1807 13.15549803154276
ONEWEB-0240             
1 48785U 21045U   24213.90643720  .00000022  00000+0  25455-4 0  9995
2 48785  87.9020  35.5346 0001363  87.7705 272.3582 13.15549208154303
ONEWEB-0246             
1 48786U 21045V   24214.05300858  .00000104  00000+0  24109-3 0  9990
2 48786  87.9023  35.5106 0001778  83.0898 277.0435 13.15544733155312
ONEWEB-0210             
1 48787U 21045W   24213.87553734  .00000151  00000+0  36750-3 0  9990
2 48787  87.9020  35.5504 0001736  59.5793 300.5509 13.15549158154216
ONEWEB-0214             
1 48788U 21045X   24214.03715902  .00000217  00000+0  54343-3 0  9998
2 48788  87.9020  35.5071 0001932  69.8915 290.2423 13.15549112155327
ONEWEB-0221             
1 48789U 21045Y   24213.89137640  .00000146  00000+0  35328-3 0  9992
2 48789  87.9023  35.5552 0001533  86.4770 273.6536 13.15546933154277
ONEWEB-0213             
1 48790U 21045Z   24213.88028476  .00000191  00000+0  47413-3 0  9997
2 48790  87.9021  35.5704 0001485  79.6409 280.4889 13.15549348154332
ONEWEB-0212             
1 48791U 21045AA  24213.93337046  .00000022  00000+0  23174-4 0  9992
2 48791  87.9022  35.5433 0001792  92.1793 267.9542 13.15549018154330
ONEWEB-0227             
1 48792U 21045AB  24214.00863402 -.00000040  00000+0 -14057-3 0  9993
2 48792  87.9021  35.5435 0001634  87.9104 272.2214 13.15549671155426
ONEWEB-0226             
1 48793U 21045AC  24213.92623885 -.00000121  00000+0 -35433-3 0  9994
2 48793  87.9020  35.5661 0001625  71.5660 288.5646 13.15548959154250
ONEWEB-0224             
1 48794U 21045AD  24213.88979400  .00000170  00000+0  41763-3 0  9992
2 48794  87.9026  35.5964 0001012 124.7065 235.4161 13.15549305154173
ONEWEB-0233             
1 48795U 21045AE  24213.89531866  .00000145  00000+0  34992-3 0  9992
2 48795  87.9023  35.6097 0001471  87.3896 272.7403 13.15551286154190
ONEWEB-0190             
1 48796U 21045AF  24213.88186667  .00000110  00000+0  25921-3 0  9991
2 48796  87.9025  35.5721 0001212  56.4068 303.7178 13.15549284154264
ONEWEB-0236             
1 48797U 21045AG  24213.89930050  .00000093  00000+0  21185-3 0  9994
2 48797  87.9029  35.5640 0001632  89.8869 270.2448 13.15549855154154
ONEWEB-0248             
1 48798U 21045AH  24214.21620822  .00000031  00000+0  48289-4 0  9992
2 48798  87.9022  35.4873 0000983  89.9666 270.1577 13.15549304155476
ONEWEB-0225             
1 48799U 21045AJ  24214.01021755 -.00000015  00000+0 -74127-4 0  9995
2 48799  87.9023  35.5428 0001415  79.2558 280.8732 13.15549457155478
ONEWEB-0215             
1 48800U 21045AK  24214.05616208  .00000112  00000+0  26224-3 0  9995
2 48800  87.9020  35.5052 0000928  71.6160 288.5072 13.15549823155338
ONEWEB-0216             
1 48801U 21045AL  24213.91356480 -.00000099  00000+0 -29652-3 0  9997
2 48801  87.9022  35.5750 0001906  80.7221 279.4124 13.15549192154203
ONEWEB-0239             
1 48802U 21045AM  24213.91831037 -.00000112  00000+0 -33031-3 0  9996
2 48802  87.9029  35.5537 0000819  87.0942 273.0282 13.15549416154244
ONEWEB-0249             
1 48967U 21060A   24213.86351562  .00000040  00000+0  71208-4 0  9996
2 48967  87.9126   5.2172 0001839  95.5538 264.5802 13.16594693149437
ONEWEB-0250             
1 48968U 21060B   24213.91667824  .00367133  00000+0  86813+0 0  9996
2 48968  87.9126   5.1823 0001265  97.0314 201.9091 13.21091690  5028
ONEWEB-0252             
1 48970U 21060D   24214.12317347  .00000064  00000+0  13482-3 0  9998
2 48970  87.9129   5.1588 0001819  89.1700 270.9639 13.16595724150800
ONEWEB-0253             
1 48971U 21060E   24213.88409747  .00000066  00000+0  13923-3 0  9999
2 48971  87.9126   5.2176 0001531  87.4675 272.6631 13.16595598149410
ONEWEB-0254             
1 48972U 21060F   24214.12158691  .00000053  00000+0  10578-3 0  9996
2 48972  87.9126   5.1489 0001535  88.5523 271.5784 13.16596210150720
ONEWEB-0255             
1 48973U 21060G   24213.93160075 -.00000019  00000+0 -84469-4 0  9999
2 48973  87.9126   5.2209 0001796  96.5597 263.5738 13.16593687149498
ONEWEB-0256             
1 48974U 21060H   24213.95772380  .00000022  00000+0  24182-4 0  9998
2 48974  87.9130   5.2205 0001974  91.7145 268.4212 13.16593378149469
ONEWEB-0257             
1 48975U 21060J   24213.91418285 -.00000108  00000+0 -31715-3 0  9992
2 48975  87.9127   5.1984 0001825  89.1693 270.9647 13.16593823149413
ONEWEB-0258             
1 48976U 21060K   24213.91576132 -.00000045  00000+0 -15156-3 0  9990
2 48976  87.9125   5.2265 0001788  96.3490 263.7845 13.16592722149426
ONEWEB-0259             
1 48977U 21060L   24213.98541997  .00000008  00000+0 -13235-4 0  9994
2 48977  87.9127   5.1971 0001549  98.4213 261.7093 13.16593157150757
ONEWEB-0260             
1 48978U 21060M   24213.90072691 -.00000031  00000+0 -11429-3 0  9996
2 48978  87.9128   5.2432 0002148  80.0686 280.0688 13.16594071149432
ONEWEB-0261             
1 48979U 21060N   24213.94584503  .00000058  00000+0  11753-3 0  9998
2 48979  87.9130   5.2290 0001432  77.0252 283.1039 13.16594906149495
ONEWEB-0262             
1 48980U 21060P   24213.92683852 -.00000083  00000+0 -24947-3 0  9994
2 48980  87.9125   5.1956 0001340  99.9366 260.1916 13.16595874149456
ONEWEB-0263             
1 48981U 21060Q   24213.95851455  .00000062  00000+0  12765-3 0  9994
2 48981  87.9131   5.2072 0001330  86.1349 273.9934 13.16594675149429
ONEWEB-0264             
1 48982U 21060R   24213.91970750 -.00000041  00000+0 -13956-3 0  9993
2 48982  87.9128   5.2258 0001747  93.3598 266.7733 13.16596800149429
ONEWEB-0266             
1 48984U 21060T   24213.94109936 -.00000002  00000+0 -39833-4 0  9998
2 48984  87.9125   5.1980 0001817  97.8307 262.3030 13.16594471149417
ONEWEB-0267             
1 48985U 21060U   24213.95218014  .00000060  00000+0  12245-3 0  9997
2 48985  87.9127   5.1975 0001593  82.4855 277.6457 13.16594778149426
ONEWEB-0268             
1 48986U 21060V   24213.92050128 -.00000037  00000+0 -13087-3 0  9996
2 48986  87.9126   5.2098 0001915  89.1917 270.9434 13.16593934149686
ONEWEB-0269             
1 48987U 21060W   24214.12950138  .00000018  00000+0  14712-4 0  9994
2 48987  87.9130   5.1952 0001910  94.8998 265.2351 13.16596572150786
ONEWEB-0270             
1 48988U 21060X   24213.91892998 -.00000065  00000+0 -20236-3 0  9991
2 48988  87.9125   5.2178 0001283  87.4402 272.6876 13.16595033149494
